:FULLY-SPECIFIED
:DEGREES
1
root 9.40804 16.2753 -23.1469 3.4765 -0.781887 4.02471
lfemur -1.32549 0.360182 -29.408
ltibia 17.5774
lfoot -17.8831 6.30262
ltoes -0.751368
rfemur -34.8909 5.38813 14.4508
rtibia 41.286
rfoot -20.8412 -9.03251
rtoes -16.9412
lowerback -7.47953 -2.38137 -4.59302
upperback -0.392055 -2.86597 2.03457
thorax 4.12127 -1.52894 4.38403
lowerneck -20.4056 -5.01018 -13.0808
upperneck 20.2436 -5.70075 11.4525
head 10.5954 -2.31335 5.45953
lclavicle 2.36492e-14 5.56597e-15
lhumerus -20.5909 -23.1408 87.7094
lradius 37.2336
lwrist 10.6252
lhand -15.4531 -25.5062
lfingers 7.12502
lthumb 10.7278 4.19985
rclavicle 2.36492e-14 5.56597e-15
rhumerus -44.1059 11.408 -86.812
rradius 37.509
rwrist -21.4468
rhand -30.1924 -23.7337
rfingers 7.12502
rthumb -3.50325 -53.6846
2
root 9.41057 16.2821 -23.0203 3.34563 -0.424719 3.9985
lfemur 0.114999 0.335783 -29.3504
ltibia 16.0313
lfoot -17.4874 6.12436
ltoes -2.33178
rfemur -35.1227 5.65639 14.2057
rtibia 40.0531
rfoot -20.9101 -8.63349
rtoes -17.1608
lowerback -7.50775 -2.3467 -4.39157
upperback -0.307229 -2.82936 1.9018
thorax 4.20449 -1.50888 4.13265
lowerneck -20.2016 -5.16168 -12.9042
upperneck 20.1868 -5.93217 11.2101
head 10.5554 -2.43848 5.29874
lclavicle -1.81779e-14 -3.97569e-15
lhumerus -20.6278 -23.9553 87.7926
lradius 37.8326
lwrist 10.9509
lhand -15.7636 -25.9355
lfingers 7.12502
lthumb 10.4282 3.78584
rclavicle -1.81779e-14 -3.97569e-15
rhumerus -44.2958 10.917 -86.7534
rradius 37.5783
rwrist -21.1117
rhand -29.6592 -24.369
rfingers 7.12502
rthumb -2.98837 -54.3278
3
root 9.41057 16.2944 -22.8979 3.15454 0.0235091 3.90101
lfemur 1.61992 0.25422 -29.1801
ltibia 14.4519
lfoot -17.1536 5.66707
ltoes -2.37701
rfemur -35.2877 5.83656 14.0309
rtibia 38.7651
rfoot -20.8297 -8.26092
rtoes -16.5326
lowerback -7.37519 -2.41019 -4.19004
upperback -0.288292 -2.93543 1.88376
thorax 4.1497 -1.55656 3.99138
lowerneck -19.9545 -5.12402 -12.9514
upperneck 20.3143 -5.90799 11.217
head 10.5535 -2.4384 5.31809
lclavicle -2.37579e-14 1.59028e-15
lhumerus -20.7865 -24.2139 87.9549
lradius 38.3741
lwrist 11.1897
lhand -15.4116 -25.8125
lfingers 7.12502
lthumb 10.7677 3.89148
rclavicle -2.37579e-14 1.59028e-15
rhumerus -44.446 10.6554 -86.6336
rradius 37.4106
rwrist -20.8886
rhand -29.7089 -24.1501
rfingers 7.12502
rthumb -3.03638 -54.1082
4
root 9.40835 16.2885 -22.7704 3.11103 0.418267 4.1703
lfemur 2.96996 0.200622 -29.4038
ltibia 12.8944
lfoot -16.8588 5.22658
ltoes -2.44601
rfemur -35.6348 6.0455 13.4046
rtibia 37.4511
rfoot -20.7428 -7.70286
rtoes -18.0957
lowerback -7.35288 -2.51067 -4.47777
upperback -0.300898 -3.04275 1.80414
thorax 4.14608 -1.61423 4.05875
lowerneck -20.0919 -5.02939 -12.9716
upperneck 20.7625 -5.82945 11.3857
head 10.7375 -2.38382 5.4134
lclavicle -2.68421e-14 -7.15625e-15
lhumerus -20.8881 -24.5408 88.1076
lradius 38.8428
lwrist 11.6231
lhand -14.7896 -25.4409
lfingers 7.12502
lthumb 11.3677 4.231
rclavicle -2.68421e-14 -7.15625e-15
rhumerus -44.6835 10.6465 -86.6314
rradius 37.2153
rwrist -20.6089
rhand -30.3588 -24.5083
rfingers 7.12502
rthumb -3.66392 -54.4565
5
root 9.40721 16.2858 -22.6336 3.25703 0.703764 4.28065
lfemur 4.1714 0.248476 -29.4715
ltibia 11.3536
lfoot -16.5899 5.01912
ltoes -3.70528
rfemur -36.0977 6.47006 12.8636
rtibia 36.1616
rfoot -20.8148 -7.20441
rtoes -18.0283
lowerback -7.60856 -2.56373 -4.59216
upperback -0.298867 -3.08824 1.70666
thorax 4.2973 -1.64107 4.00606
lowerneck -20.3303 -4.97589 -12.599
upperneck 20.9933 -5.85499 11.3554
head 10.8571 -2.36289 5.34205
lclavicle -1.08959e-14 2.70347e-14
lhumerus -21.0849 -25.0509 88.2122
lradius 39.4854
lwrist 12.08
lhand -14.6804 -25.21
lfingers 7.12502
lthumb 11.473 4.45604
rclavicle -1.08959e-14 2.70347e-14
rhumerus -44.8185 10.454 -86.6629
rradius 37.0339
rwrist -20.4837
rhand -30.147 -24.2037
rfingers 7.12502
rthumb -3.4594 -54.1554
6
root 9.40737 16.2945 -22.498 3.52113 0.986836 4.00154
lfemur 5.25256 0.31682 -29.1039
ltibia 9.74187
lfoot -16.2577 4.77688
ltoes -3.89851
rfemur -36.6502 7.07626 12.6709
rtibia 34.9488
rfoot -20.8809 -7.12677
rtoes -17.2342
lowerback -7.88833 -2.60543 -4.34945
upperback -0.415482 -3.15836 1.80664
thorax 4.33223 -1.67016 3.95691
lowerneck -20.1694 -4.94507 -12.2974
upperneck 20.9115 -5.85047 11.0816
head 10.7761 -2.37195 5.18444
lclavicle 3.42966e-14 -2.54444e-14
lhumerus -21.6112 -25.6076 88.6104
lradius 40.2418
lwrist 12.5408
lhand -15.1416 -24.884
lfingers 7.12502
lthumb 11.0282 4.80632
rclavicle 3.42966e-14 -2.54444e-14
rhumerus -44.8845 10.254 -86.493
rradius 36.7597
rwrist -20.3694
rhand -29.7095 -23.4478
rfingers 7.12502
rthumb -3.03687 -53.4059
7
root 9.40429 16.2813 -22.3653 3.79038 1.25486 3.88478
lfemur 6.40705 0.388577 -28.8837
ltibia 7.85186
lfoot -15.6988 4.41042
ltoes -2.92848
rfemur -37.2847 7.59016 12.3308
rtibia 33.826
rfoot -20.9231 -7.15933
rtoes -18.8603
lowerback -8.16368 -2.65334 -4.2442
upperback -0.557652 -3.22445 1.87851
thorax 4.34321 -1.69871 3.95678
lowerneck -19.9784 -4.9499 -12.3686
upperneck 20.9691 -5.83978 10.995
head 10.7588 -2.38867 5.16774
lclavicle -7.04443e-15 1.19271e-14
lhumerus -22.0616 -25.9604 89.0212
lradius 40.7168
lwrist 12.8339
lhand -15.1844 -24.8507
lfingers 7.12502
lthumb 10.9869 4.84179
rclavicle -7.04443e-15 1.19271e-14
rhumerus -45.0386 10.1015 -86.3917
rradius 36.5192
rwrist -20.2164
rhand -30.0466 -23.5787
rfingers 7.12502
rthumb -3.3625 -53.532
8
root 9.39989 16.2567 -22.235 3.80583 1.64183 4.10824
lfemur 8.19997 0.363443 -29.0208
ltibia 5.30313
lfoot -14.8109 4.08802
ltoes -2.85827
rfemur -37.6788 7.91192 11.6497
rtibia 32.7932
rfoot -21.0359 -7.08005
rtoes -19.9287
lowerback -8.17832 -2.76316 -4.49656
upperback -0.588747 -3.34606 1.8548
thorax 4.34479 -1.76304 4.05865
lowerneck -20.014 -4.97433 -12.6585
upperneck 21.2408 -5.85383 11.2049
head 10.8843 -2.3953 5.30419
lclavicle 1.4884e-14 2.14687e-14
lhumerus -22.2938 -25.9287 89.3211
lradius 40.9782
lwrist 12.7884
lhand -14.896 -25.1086
lfingers 7.12502
lthumb 11.265 4.56888
rclavicle 1.4884e-14 2.14687e-14
rhumerus -45.3905 10.1124 -86.4358
rradius 36.5297
rwrist -19.9163
rhand -30.2595 -24.0008
rfingers 7.12502
rthumb -3.56803 -53.9507
9
root 9.39474 16.2455 -22.108 3.70266 1.96518 4.34965
lfemur 11.5659 0.412811 -29.1578
ltibia -3.18055e-14
lfoot -12.6419 3.67481
ltoes -3.54418
rfemur -37.9551 8.41086 10.889
rtibia 31.8672
rfoot -21.1815 -6.98954
rtoes -20.1912
lowerback -7.46111 -2.94966 -5.46199
upperback -0.98761 -3.57187 2.42561
thorax 3.64785 -1.87222 5.21582
lowerneck -20.0031 -4.94188 -13.1746
upperneck 21.7731 -5.57866 10.8145
head 11.0439 -2.36356 5.30657
lclavicle -3.34952e-14 1.03368e-14
lhumerus -23.2012 -25.2501 90.724
lradius 41.2493
lwrist 12.576
lhand -14.802 -25.1927
lfingers 7.12502
lthumb 11.3557 4.47988
rclavicle -3.34952e-14 1.03368e-14
rhumerus -46.4347 11.2572 -86.0029
rradius 36.8949
rwrist -19.9402
rhand -30.3596 -24.633
rfingers 7.12502
rthumb -3.66472 -54.5812
10
root 9.39041 16.2424 -21.9772 3.7383 2.27814 4.31718
lfemur 12.0359 0.470804 -29.0308
ltibia -6.36111e-15
lfoot -12.9836 3.37997
ltoes -4.35637
rfemur -38.3788 9.02833 10.3456
rtibia 31.0589
rfoot -21.282 -7.16942
rtoes -21.5565
lowerback -8.21978 -2.91941 -4.47661
upperback -0.520103 -3.54347 1.6326
thorax 4.44517 -1.86122 3.78523
lowerneck -19.9331 -4.92596 -12.5274
upperneck 21.2815 -5.87949 11.3497
head 10.8879 -2.38188 5.33453
lclavicle -3.18055e-14 7.15625e-15
lhumerus -22.9615 -26.5805 89.6452
lradius 41.7429
lwrist 13.0851
lhand -14.3534 -25.2231
lfingers 7.12502
lthumb 11.7883 4.42511
rclavicle -3.18055e-14 7.15625e-15
rhumerus -45.9019 10.2153 -86.7959
rradius 36.5875
rwrist -19.8099
rhand -30.5261 -24.3508
rfingers 7.12502
rthumb -3.82551 -54.2962
11
root 9.38777 16.2354 -21.8415 3.7952 2.71728 4.13501
lfemur 12.4764 0.407915 -28.7356
ltibia 2.8625e-14
lfoot -13.3024 3.21649
ltoes -5.23928
rfemur -38.8081 9.64052 9.89579
rtibia 30.3781
rfoot -21.5503 -7.60783
rtoes -21.8634
lowerback -8.39069 -2.9146 -4.12327
upperback -0.47304 -3.56153 1.61072
thorax 4.56859 -1.86568 3.55233
lowerneck -19.5346 -5.06771 -12.6755
upperneck 20.8604 -6.06852 11.4269
head 10.6928 -2.48098 5.34464
lclavicle -2.89729e-14 1.90833e-14
lhumerus -23.2425 -27.0398 89.998
lradius 42.066
lwrist 13.1199
lhand -14.1027 -25.4177
lfingers 7.12502
lthumb 12.03 4.21656
rclavicle -2.89729e-14 1.90833e-14
rhumerus -45.6717 9.33274 -86.181
rradius 36.057
rwrist -19.6606
rhand -30.2292 -23.8353
rfingers 7.12502
rthumb -3.53884 -53.7857
12
root 9.38003 16.2226 -21.707 3.88999 2.94626 4.22325
lfemur 12.8611 0.528031 -28.7083
ltibia -3.49861e-14
lfoot -13.6928 3.01904
ltoes -4.2126
rfemur -39.3124 10.3906 9.14464
rtibia 29.7786
rfoot -21.9043 -7.84668
rtoes -20.267
lowerback -8.2069 -2.97235 -4.78397
upperback -0.681252 -3.6082 2.09026
thorax 4.32594 -1.8989 4.43456
lowerneck -19.3514 -5.18969 -13.0227
upperneck 20.8974 -6.01863 10.8901
head 10.658 -2.55293 5.21001
lclavicle -5.37216e-14 7.15625e-15
lhumerus -23.7853 -26.7461 91.2416
lradius 42.2029
lwrist 12.9887
lhand -14.1346 -25.4583
lfingers 7.12502
lthumb 11.9993 4.17773
rclavicle -5.37216e-14 7.15625e-15
rhumerus -45.7526 9.29645 -85.0957
rradius 35.6485
rwrist -19.4967
rhand -30.0956 -24.1435
rfingers 7.12502
rthumb -3.40977 -54.0959
13
root 9.36931 16.2101 -21.5747 4.06099 3.11672 4.58395
lfemur 13.1637 0.679085 -28.9705
ltibia 0
lfoot -13.9025 2.84213
ltoes -3.08281
rfemur -39.8979 11.0385 8.13608
rtibia 29.2311
rfoot -21.9674 -8.0018
rtoes -19.0541
lowerback -8.13853 -3.08807 -5.56772
upperback -0.879779 -3.70638 2.31703
thorax 4.15718 -1.95587 5.11171
lowerneck -19.5356 -5.12861 -13.1484
upperneck 21.3575 -5.83015 10.6143
head 10.8299 -2.5075 5.1715
lclavicle -1.6114e-14 1.59028e-15
lhumerus -24.3521 -26.4816 92.1033
lradius 42.3051
lwrist 13.0008
lhand -13.681 -25.5595
lfingers 7.12502
lthumb 12.4367 4.05052
rclavicle -1.6114e-14 1.59028e-15
rhumerus -46.0738 9.63676 -84.6678
rradius 35.5883
rwrist -19.4649
rhand -29.9584 -24.3669
rfingers 7.12502
rthumb -3.27732 -54.3215
14
root 9.36174 16.1967 -21.441 4.18115 3.58017 4.72181
lfemur 13.5511 0.561562 -28.986
ltibia 9.54166e-15
lfoot -14.0326 2.70928
ltoes -3.37978
rfemur -40.3119 11.6365 7.28924
rtibia 28.7218
rfoot -22.513 -8.55582
rtoes -18.6377
lowerback -8.11138 -3.18791 -5.72481
upperback -1.00093 -3.82748 2.30926
thorax 4.04096 -2.01212 5.18071
lowerneck -19.4427 -5.13981 -13.3222
upperneck 21.4702 -5.86297 10.8067
head 10.8707 -2.51834 5.27319
lclavicle 2.82274e-14 -7.95139e-15
lhumerus -24.9204 -26.652 92.621
lradius 42.4672
lwrist 13.0401
lhand -13.0814 -25.5228
lfingers 7.12502
lthumb 13.0148 4.05123
rclavicle 2.82274e-14 -7.95139e-15
rhumerus -46.4192 9.4902 -84.4607
rradius 35.5628
rwrist -19.3854
rhand -29.5021 -23.9384
rfingers 7.12502
rthumb -2.83658 -53.8993
15
root 9.35402 16.1749 -21.3024 4.23169 4.03138 4.63309
lfemur 14.0368 0.472366 -28.7253
ltibia 1.59028e-14
lfoot -14.3807 2.42559
ltoes -2.85137
rfemur -40.5964 12.2383 6.76713
rtibia 28.2368
rfoot -23.451 -9.44436
rtoes -19.0088
lowerback -8.14713 -3.307 -5.6302
upperback -0.9908 -3.99267 2.31486
thorax 4.08787 -2.09412 5.10896
lowerneck -19.3289 -5.17902 -13.265
upperneck 21.3105 -5.95092 10.8474
head 10.8023 -2.55068 5.25973
lclavicle 1.08213e-14 3.18055e-15
lhumerus -25.3625 -26.7335 92.9123
lradius 42.6137
lwrist 13.0172
lhand -12.7579 -25.2959
lfingers 7.12502
lthumb 13.3266 4.25797
rclavicle 1.08213e-14 3.18055e-15
rhumerus -46.3924 9.13805 -84.2543
rradius 35.2817
rwrist -19.1783
rhand -29.3331 -23.3051
rfingers 7.12502
rthumb -2.67343 -53.2681
16
root 9.34289 16.1489 -21.1626 4.38529 4.16202 4.7278
lfemur 14.4272 0.67068 -28.6701
ltibia 2.54444e-14
lfoot -14.81 2.07758
ltoes -2.63351
rfemur -41.0416 12.3666 6.40912
rtibia 27.8041
rfoot -23.6874 -9.98682
rtoes -19.573
lowerback -8.34366 -3.36891 -5.7207
upperback -0.962546 -4.05228 2.23126
thorax 4.2355 -2.12888 5.05337
lowerneck -19.4385 -5.1237 -13.1333
upperneck 21.336 -5.93786 10.9869
head 10.8306 -2.51484 5.2931
lclavicle 3.72349e-14 -1.59028e-15
lhumerus -25.7098 -26.7798 93.112
lradius 42.574
lwrist 12.9547
lhand -12.851 -25.3971
lfingers 7.12502
lthumb 13.2368 4.16257
rclavicle 3.72349e-14 -1.59028e-15
rhumerus -46.3457 8.85516 -84.1773
rradius 35.0807
rwrist -19.0025
rhand -29.5065 -23.1597
rfingers 7.12502
rthumb -2.84088 -53.1205
17
root 9.32861 16.1252 -21.0291 4.54325 4.37563 4.95444
lfemur 14.8442 0.777163 -28.7418
ltibia -5.08889e-14
lfoot -15.1629 1.71961
ltoes -2.52572
rfemur -41.4575 12.3746 5.89898
rtibia 27.4662
rfoot -23.8374 -10.3723
rtoes -19.5941
lowerback -8.34079 -3.34202 -5.92632
upperback -1.04176 -3.99317 2.10881
thorax 4.14797 -2.09706 5.05098
lowerneck -19.2566 -5.08522 -13.2137
upperneck 21.2332 -5.95157 11.2829
head 10.7729 -2.49808 5.41448
lclavicle -3.13086e-15 7.95139e-16
lhumerus -26.1046 -26.9991 93.5921
lradius 42.3865
lwrist 12.7634
lhand -12.9092 -25.49
lfingers 7.12502
lthumb 13.1808 4.07331
rclavicle -3.13086e-15 7.95139e-16
rhumerus -46.5993 8.37889 -83.9652
rradius 34.9547
rwrist -18.9181
rhand -29.4992 -22.7689
rfingers 7.12502
rthumb -2.83384 -52.7298
18
root 9.31557 16.1071 -20.8934 4.46986 4.85527 5.21428
lfemur 15.518 0.651454 -28.8088
ltibia -3.49861e-14
lfoot -15.347 1.3328
ltoes -2.0675
rfemur -41.4828 12.4924 5.27193
rtibia 27.2163
rfoot -24.302 -10.9099
rtoes -19.23
lowerback -8.02047 -3.39933 -6.19524
upperback -1.08243 -4.06292 2.05149
thorax 3.95016 -2.12895 5.15019
lowerneck -19.1768 -5.13921 -13.4229
upperneck 21.2572 -6.01591 11.438
head 10.7887 -2.5295 5.50024
lclavicle 8.08805e-15 -1.59028e-15
lhumerus -26.7466 -27.1706 94.186
lradius 42.4604
lwrist 12.5387
lhand -12.5017 -25.1868
lfingers 7.12502
lthumb 13.5735 4.35071
rclavicle 8.08805e-15 -1.59028e-15
rhumerus -46.7002 8.01763 -83.7668
rradius 34.5632
rwrist -18.4978
rhand -29.689 -22.5044
rfingers 7.12502
rthumb -3.01715 -52.4628
19
root 9.30569 16.0988 -20.7507 4.51715 5.26524 5.44562
lfemur 16.0289 0.579091 -28.8655
ltibia 2.54444e-14
lfoot -15.3724 1.13752
ltoes -2.84177
rfemur -41.5593 12.4442 4.79145
rtibia 26.9934
rfoot -24.4239 -11.3281
rtoes -18.6285
lowerback -7.99224 -3.54431 -6.4303
upperback -1.07688 -4.23746 2.05527
thorax 3.98181 -2.2206 5.2648
lowerneck -19.2707 -5.24835 -13.7422
upperneck 21.3729 -6.09579 11.5455
head 10.8765 -2.57846 5.58717
lclavicle -1.14053e-14 1.82882e-14
lhumerus -27.4796 -27.2462 94.6759
lradius 42.671
lwrist 12.4201
lhand -12.1424 -24.8875
lfingers 7.12502
lthumb 13.9198 4.62655
rclavicle -1.14053e-14 1.82882e-14
rhumerus -46.7407 8.20984 -83.8523
rradius 34.3221
rwrist -18.0522
rhand -30.2765 -23.2582
rfingers 7.12502
rthumb -3.58443 -53.2078
20
root 9.29284 16.0903 -20.6074 4.78876 5.47989 5.3639
lfemur 16.2614 0.675475 -28.5789
ltibia -5.08889e-14
lfoot -15.4652 0.927601
ltoes -3.68518
rfemur -41.9287 12.5775 4.60516
rtibia 26.7773
rfoot -24.1625 -12.2158
rtoes -20.1174
lowerback -8.25081 -3.57063 -6.33837
upperback -1.14074 -4.26727 2.11362
thorax 4.06139 -2.23478 5.25864
lowerneck -19.1245 -5.32024 -13.9443
upperneck 21.2598 -6.1653 11.6195
head 10.8277 -2.6218 5.6351
lclavicle -2.21521e-14 1.03368e-14
lhumerus -27.9737 -27.2894 95.1957
lradius 42.4484
lwrist 12.2572
lhand -11.9757 -24.6238
lfingers 7.12502
lthumb 14.0805 4.87919
rclavicle -2.21521e-14 1.03368e-14
rhumerus -47.072 8.11821 -83.6539
rradius 34.4393
rwrist -18.0382
rhand -30.0397 -23.4577
rfingers 7.12502
rthumb -3.35576 -53.411
